[{"OBJECT_NAME":"STARLINK-5221","OBJECT_ID":"2022-136AS","EPOCH":"2026-03-09T21:55:54.231168","MEAN_MOTION":15.08838844,"ECCENTRICITY":0.00012288,"INCLINATION":53.2182,"RA_OF_ASC_NODE":332.7139,"ARG_OF_PERICENTER":97.1776,"MEAN_ANOMALY":262.9356,"EPHEMERIS_TYPE":0,"CLASSIFICATION_TYPE":"U","NORAD_CAT_ID":54091,"ELEMENT_SET_NO":999,"REV_AT_EPOCH":18702,"BSTAR":6.44021e-6,"MEAN_MOTION_DOT":-1.85e-6,"MEAN_MOTION_DDOT":0},{"OBJECT_NAME":"FENGYUN 1C DEB","OBJECT_ID":"1999-025DMH","EPOCH":"2026-03-08T12:22:59.285280","MEAN_MOTION":14.74467635,"ECCENTRICITY":0.01679532,"INCLINATION":98.8961,"RA_OF_ASC_NODE":332.7174,"ARG_OF_PERICENTER":174.5846,"MEAN_ANOMALY":185.7228,"EPHEMERIS_TYPE":0,"CLASSIFICATION_TYPE":"U","NORAD_CAT_ID":35153,"ELEMENT_SET_NO":999,"REV_AT_EPOCH":98481,"BSTAR":0.00043532495,"MEAN_MOTION_DOT":3.561e-5,"MEAN_MOTION_DDOT":0}]
